[{"OBJECT_NAME":"INTELSAT 25 (IS-25)","OBJECT_ID":"2008-034A","EPOCH":"2026-04-04T02:22:09.363936","MEAN_MOTION":1.00271339,"ECCENTRICITY":0.00029802,"INCLINATION":2.5167,"RA_OF_ASC_NODE":81.1965,"ARG_OF_PERICENTER":251.5433,"MEAN_ANOMALY":223.7214,"EPHEMERIS_TYPE":0,"CLASSIFICATION_TYPE":"U","NORAD_CAT_ID":33153,"ELEMENT_SET_NO":999,"REV_AT_EPOCH":6495,"BSTAR":0,"MEAN_MOTION_DOT":-2.24e-6,"MEAN_MOTION_DDOT":0},{"OBJECT_NAME":"GALAXY 19 (G-19)","OBJECT_ID":"2008-045A","EPOCH":"2026-04-04T05:55:44.852160","MEAN_MOTION":1.00272764,"ECCENTRICITY":0.00029125,"INCLINATION":0.0222,"RA_OF_ASC_NODE":247.3484,"ARG_OF_PERICENTER":133.4539,"MEAN_ANOMALY":163.7022,"EPHEMERIS_TYPE":0,"CLASSIFICATION_TYPE":"U","NORAD_CAT_ID":33376,"ELEMENT_SET_NO":999,"REV_AT_EPOCH":6416,"BSTAR":0,"MEAN_MOTION_DOT":-1.4e-6,"MEAN_MOTION_DDOT":0},{"OBJECT_NAME":"FM-5","OBJECT_ID":"2009-034A","EPOCH":"2026-04-03T22:40:46.238304","MEAN_MOTION":1.0027303,"ECCENTRICITY":1.752e-5,"INCLINATION":0.0201,"RA_OF_ASC_NODE":254.8145,"ARG_OF_PERICENTER":18.3757,"MEAN_ANOMALY":173.109,"EPHEMERIS_TYPE":0,"CLASSIFICATION_TYPE":"U","NORAD_CAT_ID":35493,"ELEMENT_SET_NO":999,"REV_AT_EPOCH":4589,"BSTAR":0,"MEAN_MOTION_DOT":-2.02e-6,"MEAN_MOTION_DDOT":0},{"OBJECT_NAME":"INTELSAT 14 (IS-14)","OBJECT_ID":"2009-064A","EPOCH":"2026-04-04T05:27:38.799360","MEAN_MOTION":1.00272903,"ECCENTRICITY":0.00025583,"INCLINATION":0.0433,"RA_OF_ASC_NODE":73.1355,"ARG_OF_PERICENTER":308.7043,"MEAN_ANOMALY":207.6211,"EPHEMERIS_TYPE":0,"CLASSIFICATION_TYPE":"U","NORAD_CAT_ID":36097,"ELEMENT_SET_NO":999,"REV_AT_EPOCH":5986,"BSTAR":0,"MEAN_MOTION_DOT":-2.74e-6,"MEAN_MOTION_DDOT":0},{"OBJECT_NAME":"INTELSAT 15 (IS-15)","OBJECT_ID":"2009-067A","EPOCH":"2026-04-04T05:25:14.591712","MEAN_MOTION":1.00269977,"ECCENTRICITY":0.00024916,"INCLINATION":0.0189,"RA_OF_ASC_NODE":222.0014,"ARG_OF_PERICENTER":167.4493,"MEAN_ANOMALY":329.5559,"EPHEMERIS_TYPE":0,"CLASSIFICATION_TYPE":"U","NORAD_CAT_ID":36106,"ELEMENT_SET_NO":999,"REV_AT_EPOCH":4048,"BSTAR":0,"MEAN_MOTION_DOT":0,"MEAN_MOTION_DDOT":0},{"OBJECT_NAME":"DIRECTV 12","OBJECT_ID":"2009-075A","EPOCH":"2026-04-04T00:19:06.166848","MEAN_MOTION":1.00272211,"ECCENTRICITY":4.644e-5,"INCLINATION":0.0124,"RA_OF_ASC_NODE":329.7374,"ARG_OF_PERICENTER":71.5214,"MEAN_ANOMALY":53.1228,"EPHEMERIS_TYPE":0,"CLASSIFICATION_TYPE":"U","NORAD_CAT_ID":36131,"ELEMENT_SET_NO":999,"REV_AT_EPOCH":4581,"BSTAR":0,"MEAN_MOTION_DOT":-1.05e-6,"MEAN_MOTION_DDOT":0},{"OBJECT_NAME":"INTELSAT 16 (IS-16)","OBJECT_ID":"2010-006A","EPOCH":"2026-04-04T03:52:00.746400","MEAN_MOTION":1.00270165,"ECCENTRICITY":0.00021413,"INCLINATION":0.0149,"RA_OF_ASC_NODE":223.6596,"ARG_OF_PERICENTER":176.4368,"MEAN_ANOMALY":134.1877,"EPHEMERIS_TYPE":0,"CLASSIFICATION_TYPE":"U","NORAD_CAT_ID":36397,"ELEMENT_SET_NO":999,"REV_AT_EPOCH":5891,"BSTAR":0,"MEAN_MOTION_DOT":0,"MEAN_MOTION_DDOT":0},{"OBJECT_NAME":"XM-5","OBJECT_ID":"2010-053A","EPOCH":"2026-04-04T05:11:46.108896","MEAN_MOTION":1.00273168,"ECCENTRICITY":0.00039135,"INCLINATION":0.0671,"RA_OF_ASC_NODE":269.4206,"ARG_OF_PERICENTER":267.635,"MEAN_ANOMALY":338.2222,"EPHEMERIS_TYPE":0,"CLASSIFICATION_TYPE":"U","NORAD_CAT_ID":37185,"ELEMENT_SET_NO":999,"REV_AT_EPOCH":5674,"BSTAR":0,"MEAN_MOTION_DOT":-2.4e-7,"MEAN_MOTION_DDOT":0},{"OBJECT_NAME":"INTELSAT 17 (IS-17)","OBJECT_ID":"2010-065B","EPOCH":"2026-04-04T05:33:38.759040","MEAN_MOTION":1.00271426,"ECCENTRICITY":0.00024468,"INCLINATION":0.0147,"RA_OF_ASC_NODE":197.4531,"ARG_OF_PERICENTER":186.0341,"MEAN_ANOMALY":318.4685,"EPHEMERIS_TYPE":0,"CLASSIFICATION_TYPE":"U","NORAD_CAT_ID":37238,"ELEMENT_SET_NO":999,"REV_AT_EPOCH":5250,"BSTAR":0,"MEAN_MOTION_DOT":-2.0e-8,"MEAN_MOTION_DDOT":0},{"OBJECT_NAME":"INTELSAT 28 (IS-28)","OBJECT_ID":"2011-016A","EPOCH":"2026-04-04T05:19:38.595936","MEAN_MOTION":1.00272088,"ECCENTRICITY":0.00045213,"INCLINATION":1.6152,"RA_OF_ASC_NODE":83.5187,"ARG_OF_PERICENTER":296.7697,"MEAN_ANOMALY":220.4564,"EPHEMERIS_TYPE":0,"CLASSIFICATION_TYPE":"U","NORAD_CAT_ID":37392,"ELEMENT_SET_NO":999,"REV_AT_EPOCH":5254,"BSTAR":0,"MEAN_MOTION_DOT":-2.25e-6,"MEAN_MOTION_DDOT":0},{"OBJECT_NAME":"INTELSAT 18 (IS-18)","OBJECT_ID":"2011-056A","EPOCH":"2026-04-04T05:05:08.731968","MEAN_MOTION":1.00273746,"ECCENTRICITY":0.00019789,"INCLINATION":0.0177,"RA_OF_ASC_NODE":250.8938,"ARG_OF_PERICENTER":124.3087,"MEAN_ANOMALY":73.611,"EPHEMERIS_TYPE":0,"CLASSIFICATION_TYPE":"U","NORAD_CAT_ID":37834,"ELEMENT_SET_NO":999,"REV_AT_EPOCH":5306,"BSTAR":0,"MEAN_MOTION_DOT":5.3e-7,"MEAN_MOTION_DDOT":0},{"OBJECT_NAME":"INTELSAT 22 (IS-22)","OBJECT_ID":"2012-011A","EPOCH":"2026-04-04T04:34:19.188768","MEAN_MOTION":1.00271481,"ECCENTRICITY":0.00016789,"INCLINATION":0.0126,"RA_OF_ASC_NODE":222.1585,"ARG_OF_PERICENTER":156.2103,"MEAN_ANOMALY":314.8226,"EPHEMERIS_TYPE":0,"CLASSIFICATION_TYPE":"U","NORAD_CAT_ID":38098,"ELEMENT_SET_NO":999,"REV_AT_EPOCH":644,"BSTAR":0,"MEAN_MOTION_DOT":-5.9e-7,"MEAN_MOTION_DDOT":0},{"OBJECT_NAME":"INTELSAT 19 (IS-19)","OBJECT_ID":"2012-030A","EPOCH":"2026-04-04T05:31:38.645760","MEAN_MOTION":1.00270509,"ECCENTRICITY":0.00030646,"INCLINATION":0.0206,"RA_OF_ASC_NODE":112.9512,"ARG_OF_PERICENTER":263.5924,"MEAN_ANOMALY":64.9174,"EPHEMERIS_TYPE":0,"CLASSIFICATION_TYPE":"U","NORAD_CAT_ID":38356,"ELEMENT_SET_NO":999,"REV_AT_EPOCH":4970,"BSTAR":0,"MEAN_MOTION_DOT":-5.7e-7,"MEAN_MOTION_DDOT":0},{"OBJECT_NAME":"INTELSAT 20 (IS-20)","OBJECT_ID":"2012-043A","EPOCH":"2026-04-04T05:33:38.759040","MEAN_MOTION":1.00271913,"ECCENTRICITY":0.00025997,"INCLINATION":0.0175,"RA_OF_ASC_NODE":135.6867,"ARG_OF_PERICENTER":31.9243,"MEAN_ANOMALY":176.8492,"EPHEMERIS_TYPE":0,"CLASSIFICATION_TYPE":"U","NORAD_CAT_ID":38740,"ELEMENT_SET_NO":999,"REV_AT_EPOCH":5000,"BSTAR":0,"MEAN_MOTION_DOT":-2.5e-7,"MEAN_MOTION_DDOT":0},{"OBJECT_NAME":"INTELSAT 21 (IS-21)","OBJECT_ID":"2012-045A","EPOCH":"2026-04-04T05:39:57.891744","MEAN_MOTION":1.00270089,"ECCENTRICITY":0.0001946,"INCLINATION":0.0203,"RA_OF_ASC_NODE":212.6,"ARG_OF_PERICENTER":178.1812,"MEAN_ANOMALY":188.7695,"EPHEMERIS_TYPE":0,"CLASSIFICATION_TYPE":"U","NORAD_CAT_ID":38749,"ELEMENT_SET_NO":999,"REV_AT_EPOCH":4978,"BSTAR":0,"MEAN_MOTION_DOT":0,"MEAN_MOTION_DDOT":0},{"OBJECT_NAME":"INTELSAT 23 (IS-23)","OBJECT_ID":"2012-057A","EPOCH":"2026-04-04T05:41:20.260320","MEAN_MOTION":1.00269445,"ECCENTRICITY":5.956e-5,"INCLINATION":0.0182,"RA_OF_ASC_NODE":249.6397,"ARG_OF_PERICENTER":152.9859,"MEAN_ANOMALY":182.2427,"EPHEMERIS_TYPE":0,"CLASSIFICATION_TYPE":"U","NORAD_CAT_ID":38867,"ELEMENT_SET_NO":999,"REV_AT_EPOCH":4921,"BSTAR":0,"MEAN_MOTION_DOT":-2.85e-6,"MEAN_MOTION_DDOT":0},{"OBJECT_NAME":"FM-6","OBJECT_ID":"2013-058A","EPOCH":"2026-04-04T05:11:46.082112","MEAN_MOTION":1.00270619,"ECCENTRICITY":0.00025055,"INCLINATION":0.0166,"RA_OF_ASC_NODE":135.0134,"ARG_OF_PERICENTER":56.1374,"MEAN_ANOMALY":322.9619,"EPHEMERIS_TYPE":0,"CLASSIFICATION_TYPE":"U","NORAD_CAT_ID":39360,"ELEMENT_SET_NO":999,"REV_AT_EPOCH":4533,"BSTAR":0,"MEAN_MOTION_DOT":-1.6e-7,"MEAN_MOTION_DDOT":0}]
